STARLINK-2582           
1 48460U 21040AJ  24292.29854486  .00009208  00000+0  63596-3 0  9994
2 48460  53.0537 304.3817 0001371 100.9404 259.1739 15.06417986190590
STARLINK-2693           
1 48461U 21040AK  24292.31329457  .00007350  00000+0  51164-3 0  9997
2 48461  53.0543 304.3184 0001706  85.6822 274.4362 15.06411365190092
STARLINK-2683           
1 48462U 21040AL  24292.42896544  .00014372  00000+0  98123-3 0  9994
2 48462  53.0535 309.0770 0001367  96.5336 263.5809 15.06420724190039
STARLINK-2689           
1 48463U 21040AM  24292.43536571  .00011845  00000+0  81247-3 0  9998
2 48463  53.0531 308.7709 0001211  95.9535 264.1592 15.06412633190043
STARLINK-2686           
1 48464U 21040AN  24292.34786530  .00012654  00000+0  86690-3 0  9997
2 48464  53.0540 309.1637 0001423 103.1452 256.9696 15.06398100190028
STARLINK-2681           
1 48465U 21040AP  24292.42524350  .00008548  00000+0  59179-3 0  9996
2 48465  53.0540 308.8156 0001520  94.1005 266.0157 15.06415907190043
STARLINK-2687           
1 48466U 21040AQ  24292.34415637  .00010647  00000+0  73227-3 0  9998
2 48466  53.0546 309.1804 0001569  93.8962 266.2206 15.06416630190035
STARLINK-2659           
1 48467U 21040AR  24292.43630371  .00013061  00000+0  89360-3 0  9991
2 48467  53.0543 308.7646 0001353  97.4253 262.6890 15.06420420190048
STARLINK-2685           
1 48468U 21040AS  24292.35153017  .00007840  00000+0  54436-3 0  9994
2 48468  53.0542 309.1459 0001370  86.7064 273.4082 15.06417805190030
STARLINK-2661           
1 48469U 21040AT  24292.43261512  .00009121  00000+0  63013-3 0  9999
2 48469  53.0540 308.7806 0001448  99.0151 261.1002 15.06417537190049
STARLINK-2675           
1 48470U 21040AU  24292.46214955  .00016309  00000+0  11106-2 0  9994
2 48470  53.0542 308.9983 0001821  98.7721 261.3475 15.06422158190035
STARLINK-2684           
1 48471U 21040AV  24292.35521859  .00012742  00000+0  87248-3 0  9995
2 48471  53.0538 309.1309 0001421  80.2285 279.8864 15.06412562190026
STARLINK-2722           
1 48472U 21040AW  24292.46949360  .00015691  00000+0  10694-2 0  9995
2 48472  53.0545 308.6169 0001695 100.0142 260.1039 15.06417627190034
STARLINK-2658           
1 48473U 21040AX  24292.37364647  .00005131  00000+0  36300-3 0  9996
2 48473  53.0539 309.0437 0001346  96.5327 263.5815 15.06410213190020
STARLINK-2697           
1 48474U 21040AY  24292.47317149  .00014794  00000+0  10095-2 0  9990
2 48474  53.0542 308.6025 0001512  76.2369 283.8789 15.06418374190031
STARLINK-2619           
1 48475U 21040AZ  24292.32228958  .00022610  00000+0  13787-2 0  9991
2 48475  53.0547 308.7056 0005180  55.0256 305.1221 15.10271789190027
STARLINK-2723           
1 48476U 21040BA  24292.46578772  .00015512  00000+0  10573-2 0  9992
2 48476  53.0546 308.6331 0001534  91.6303 268.4861 15.06423879190036
STARLINK-2728           
1 48478U 21040BC  24292.45104997  .00015114  00000+0  10308-2 0  9991
2 48478  53.0534 308.7022 0001473  96.1433 263.9724 15.06420805190033
STARLINK-2755           
1 48479U 21040BD  24292.31467473  .00010685  00000+0  73496-3 0  9994
2 48479  53.0540 309.3101 0001388  89.9702 270.1446 15.06408237190014
STARLINK-2706           
1 48481U 21040BF  24292.30272107  .00007427  00000+0  51668-3 0  9991
2 48481  53.0544 319.6470 0001551  97.5672 262.5493 15.06419323189863
STARLINK-2525           
1 48482U 21040BG  24292.46857144 -.00001588  00000+0 -87693-4 0  9991
2 48482  53.0551 318.6146 0001945 114.0719 246.0474 15.06409753189890
STARLINK-2531           
1 48483U 21040BH  24292.46490324  .00026176  00000+0  17697-2 0  9998
2 48483  53.0530 318.6372 0001378  79.8312 280.2832 15.06399311189892
STARLINK-2696           
1 48484U 21040BJ  24292.44350795  .00046778  00000+0  24395-2 0  9997
2 48484  53.0498 316.6454 0005046  41.5449 318.5926 15.15516865189926
STARLINK-2500           
1 48485U 21040BK  24292.33955441  .00005794  00000+0  40748-3 0  9999
2 48485  53.0540 319.1989 0001318  94.1655 265.9484 15.06406025189871
STARLINK-2494           
1 48487U 21040BM  24292.34692241  .00015293  00000+0  10429-2 0  9995
2 48487  53.0539 319.1659 0001368 102.8278 257.2864 15.06414780189882
STARLINK-2063           
1 48553U 21041A   24292.12483668  .00014570  00000+0  99429-3 0  9992
2 48553  53.0543 250.1605 0001082  88.4040 271.7073 15.06426619188702
STARLINK-2139           
1 48554U 21041B   24292.16174987  .00020701  00000+0  14034-2 0  9999
2 48554  53.0548 250.3036 0001498  89.5224 270.5936 15.06431151188707
STARLINK-2145           
1 48555U 21041C   24292.29347877  .00017279  00000+0  11755-2 0  9997
2 48555  53.0540 259.4084 0001367  88.8514 271.2631 15.06416972188582
STARLINK-2151           
1 48556U 21041D   24292.21606658  .00019918  00000+0  13512-2 0  9990
2 48556  53.0540 259.7512 0001518  85.9648 274.1514 15.06430355189029
STARLINK-2155           
1 48557U 21041E   24292.15433060  .00022188  00000+0  15023-2 0  9991
2 48557  53.0539 250.0294 0001590 102.0110 258.1057 15.06435736188700
STARLINK-2166           
1 48558U 21041F   24292.15064306  .00020004  00000+0  13570-2 0  9995
2 48558  53.0538 250.0509 0001390 101.9844 258.1301 15.06428635187845
STARLINK-2187           
1 48562U 21041K   24292.32757881  .00022812  00000+0  15442-2 0  9995
2 48562  53.0547 249.2517 0001425 107.3177 252.7968 15.06428455188735
STARLINK-2188           
1 48563U 21041L   24292.21330898  .00015258  00000+0  10405-2 0  9999
2 48563  53.0538 249.7674 0001326  83.5292 276.5848 15.06417697188713
STARLINK-2190           
1 48564U 21041M   24292.20593962  .00016168  00000+0  11013-2 0  9999
2 48564  53.0538 249.8014 0001344  85.7104 274.4038 15.06416802188714
STARLINK-2191           
1 48565U 21041N   24292.16250128  .00113167  00000+0  51161-2 0  9994
2 48565  53.0537 246.0863 0011324  82.8555 277.3727 15.20000465188764
STARLINK-2214           
1 48566U 21041P   24292.35612603  .00023714  00000+0  16040-2 0  9991
2 48566  53.0548 259.0953 0001301 112.0761 248.0366 15.06435426188598
STARLINK-2217           
1 48568U 21041R   24292.11747954  .00017409  00000+0  11842-2 0  9994
2 48568  53.0554 250.1964 0001293  78.0811 282.0323 15.06417777188699
STARLINK-2219           
1 48569U 21041S   24292.20962140  .00017424  00000+0  11851-2 0  9998
2 48569  53.0541 249.7862 0001244  91.1595 268.9537 15.06419533188713
STARLINK-2220           
1 48570U 21041T   24292.13130004  .00012827  00000+0  87806-3 0  9994
2 48570  53.0552 260.1364 0001564  81.5897 278.5270 15.06417329188558
STARLINK-2221           
1 48571U 21041U   24292.33769955  .00019672  00000+0  13346-2 0  9992
2 48571  53.0545 259.2083 0001402 101.5797 258.5349 15.06436000188597
STARLINK-2222           
1 48572U 21041V   24292.33402098  .00017006  00000+0  11571-2 0  9992
2 48572  53.0548 259.2216 0001447  83.2844 276.8309 15.06422205188598
STARLINK-2224           
1 48573U 21041W   24292.18013668  .00020418  00000+0  13845-2 0  9994
2 48573  53.0546 249.9160 0001203 102.4289 257.6835 15.06430546188709
STARLINK-2225           
1 48574U 21041X   24292.21608457  .00039118  00000+0  26276-2 0  9994
2 48574  53.0546 219.8411 0001593  67.8299 292.2859 15.06440701189135
STARLINK-2227           
1 48575U 21041Y   24292.16540629 -.00007867  00000+0 -50882-3 0  9994
2 48575  53.0551 210.2988 0001639  57.2503 302.8644 15.06470433189278
STARLINK-2228           
1 48576U 21041Z   24292.03315696  .00029393  00000+0  19822-2 0  9999
2 48576  53.0548 225.5736 0001845 103.8796 256.2398 15.06432561189049
STARLINK-2231           
1 48577U 21041AA  24292.33128891  .00024606  00000+0  16635-2 0  9993
2 48577  53.0544 249.5068 0001636  88.4952 271.6225 15.06433644188727
STARLINK-2232           
1 48578U 21041AB  24292.20231635  .00014625  00000+0  99826-3 0  9995
2 48578  53.0535 250.3237 0001496  78.2514 281.8643 15.06416691188709
STARLINK-2234           
1 48580U 21041AD  24292.46072796  .00010883  00000+0  74798-3 0  9990
2 48580  53.0546 223.6665 0001154  90.5523 269.5598 15.06418016189100
STARLINK-2235           
1 48581U 21041AE  24292.02302749  .00027869  00000+0  18805-2 0  9995
2 48581  53.0543 215.6333 0001410  70.3090 289.8051 15.06438731189184
STARLINK-2236           
1 48582U 21041AF  24292.00461675  .00019993  00000+0  13571-2 0  9992
2 48582  53.0547 215.8668 0001770 118.9324 241.1843 15.06405732189174
STARLINK-2237           
1 48583U 21041AG  24292.20869710  .00008712  00000+0  60311-3 0  9999
2 48583  53.0551 259.7884 0001751  82.0316 278.0871 15.06394522189026
STARLINK-2238           
1 48584U 21041AH  24292.18290522  .00019254  00000+0  13064-2 0  9991
2 48584  53.0537 259.9044 0001494  96.0530 264.0629 15.06443527188562
STARLINK-2240           
1 48585U 21041AJ  24292.19396354  .00005995  00000+0  42087-3 0  9998
2 48585  53.0539 259.8514 0001628  95.5626 264.5549 15.06415186188561
STARLINK-2241           
1 48586U 21041AK  24292.18659184  .00019683  00000+0  13357-2 0  9997
2 48586  53.0542 259.8875 0001555  85.7421 274.3745 15.06424512188569
STARLINK-2242           
1 48587U 21041AL  24292.32296778  .00007894  00000+0  54795-3 0  9993
2 48587  53.0536 259.2711 0001708  91.3347 268.7838 15.06418745188589
STARLINK-2244           
1 48588U 21041AM  24292.10641928  .00004418  00000+0  31521-3 0  9992
2 48588  53.0528 250.2855 0001590  96.2804 263.8366 15.06412914188698
STARLINK-2245           
1 48589U 21041AN  24292.29807718  .00019514  00000+0  13241-2 0  9995
2 48589  53.0532 249.3854 0001581  94.2513 265.8657 15.06434281188727
STARLINK-2249           
1 48592U 21041AR  24292.31193003  .00021441  00000+0  14524-2 0  9994
2 48592  53.0537 259.5586 0001379  96.7850 263.3296 15.06439718188583
STARLINK-2250           
1 48593U 21041AS  24292.29716562  .00024029  00000+0  16256-2 0  9992
2 48593  53.0538 259.3893 0001421  86.8751 273.2400 15.06421166188587
